0 DELTA 1 DEB
1 19478U 81070L   13283.73153267 -.00000017  00000-0  00000+0 0  9365
2 19478 089.8751 037.3508 6141618 216.9407 078.7021 03.66307677261471
0 DELTA 1 DEB
1 19478U 81070L   13285.35989309  .00001507  00000-0  37500-2 0  9383
2 19478 089.7947 037.3730 6142166 216.3404 066.6116 03.66343195261526
0 DELTA 1 DEB
1 19478U 81070L   13285.88699742  .00001721  00000-0  43352-2 0  9391
2 19478 089.7958 037.3724 6142181 216.1527 041.7765 03.66342501261548
0 DELTA 1 DEB
1 19478U 81070L   13293.56306677  .00001576  00000-0  41921-2 0  9407
2 19478 089.7954 037.3465 6142999 213.4344 085.5696 03.66368827261830
0 DELTA 1 DEB
1 19478U 81070L   13293.80651832  .00002448  00000-0  62568-2 0  9410
2 19478 089.7926 037.3531 6143624 213.3548 046.6552 03.66375134261832
